[{"OBJECT_NAME":"STARLINK-31692","OBJECT_ID":"2024-076P","EPOCH":"2026-03-09T04:19:37.028352","MEAN_MOTION":15.27578376,"ECCENTRICITY":0.00014704,"INCLINATION":43.0042,"RA_OF_ASC_NODE":11.9462,"ARG_OF_PERICENTER":261.8483,"MEAN_ANOMALY":98.2202,"EPHEMERIS_TYPE":0,"CLASSIFICATION_TYPE":"U","NORAD_CAT_ID":59577,"ELEMENT_SET_NO":999,"REV_AT_EPOCH":10642,"BSTAR":4.2720269e-5,"MEAN_MOTION_DOT":9.13e-6,"MEAN_MOTION_DDOT":0},{"OBJECT_NAME":"UNKNOWN","OBJECT_ID":"","EPOCH":"2026-02-22T00:08:45.737952","MEAN_MOTION":14.15044008,"ECCENTRICITY":0.0509514,"INCLINATION":65.771,"RA_OF_ASC_NODE":261.596,"ARG_OF_PERICENTER":328.3661,"MEAN_ANOMALY":28.7697,"EPHEMERIS_TYPE":0,"CLASSIFICATION_TYPE":"U","NORAD_CAT_ID":87456,"ELEMENT_SET_NO":999,"REV_AT_EPOCH":62157,"BSTAR":0.00055206,"MEAN_MOTION_DOT":3.756e-5,"MEAN_MOTION_DDOT":0}]
